CTC1_L_00299016-03
1 78135U 24559FM  26070.40834491  .00000000  00000+0  00000-0 0  9996
2 78135  55.0000 180.0000 0000000   0.0000   0.0000 14.70334635    12
CTC1_L_00299016-04
1 78136U 22656V   26070.40834491  .00000000  00000+0  00000-0 0  9993
2 78136  55.0000 180.0000 0000000   0.0000  90.0000 14.70334635    12
CTC1_L_00299017-01
1 78137U 22629SL  26070.40834491  .00000000  00000+0  00000-0 0  9994
2 78137  55.0000 192.0000 0000000   0.0000 192.0000 14.70334635    19
CTC1_L_00299017-02
1 78138U 23493JH  26070.40834491  .00000000  00000+0  00000-0 0  9995
2 78138  55.0000 192.0000 0000000   0.0000 282.0000 14.70334635    10
CTC1_L_00299017-03
1 78139U 26851DB  26070.40834491  .00000000  00000+0  00000-0 0  9997
2 78139  55.0000 192.0000 0000000   0.0000  12.0000 14.70334635    12
CTC1_L_00299017-04
1 78140U 22943N   26070.40834491  .00000000  00000+0  00000-0 0  9997
2 78140  55.0000 192.0000 0000000   0.0000 102.0000 14.70334635    14
CTC1_L_00299018-01
1 78141U 22692TY  26070.40834491  .00000000  00000+0  00000-0 0  9999
2 78141  55.0000 204.0000 0000000   0.0000 204.0000 14.70334635    12
CTC1_L_00299018-02
1 78142U 25215QA  26070.40834491  .00000000  00000+0  00000-0 0  9994
2 78142  55.0000 204.0000 0000000   0.0000 294.0000 14.70334635    12
CTC1_L_00299018-03
1 78143U 22236FV  26070.40834491  .00000000  00000+0  00000-0 0  9995
2 78143  55.0000 204.0000 0000000   0.0000  24.0000 14.70334635    14
CTC1_L_00299018-04
1 78144U 24193RD  26070.40834491  .00000000  00000+0  00000-0 0  9990
2 78144  55.0000 204.0000 0000000   0.0000 114.0000 14.70334635    15
CTC1_L_00299019-01
1 78145U 23388FB  26070.40834491  .00000000  00000+0  00000-0 0  9996
2 78145  55.0000 216.0000 0000000   0.0000 216.0000 14.70334635    12
CTC1_L_00299019-02
1 78146U 24836RB  26070.40834491  .00000000  00000+0  00000-0 0  9996
2 78146  55.0000 216.0000 0000000   0.0000 306.0000 14.70334635    13
CTC1_L_00299019-03
1 78147U 23083HU  26070.40834491  .00000000  00000+0  00000-0 0  9990
2 78147  55.0000 216.0000 0000000   0.0000  36.0000 14.70334635    14
CTC1_L_00299019-04
1 78148U 26657DS  26070.40834491  .00000000  00000+0  00000-0 0  9991
2 78148  55.0000 216.0000 0000000   0.0000 126.0000 14.70334635    15
CTC1_L_00299020-01
1 78149U 23214GH  26070.40834491  .00000000  00000+0  00000-0 0  9998
2 78149  55.0000 228.0000 0000000   0.0000 228.0000 14.70334635    12
CTC1_L_00299020-02
1 78150U 23665MA  26070.40834491  .00000000  00000+0  00000-0 0  9990
2 78150  55.0000 228.0000 0000000   0.0000 318.0000 14.70334635    14
CTC1_L_00299020-03
1 78151U 22659CP  26070.40834491  .00000000  00000+0  00000-0 0  9993
2 78151  55.0000 228.0000 0000000   0.0000  48.0000 14.70334635    15
CTC1_L_00299020-04
1 78152U 23655UZ  26070.40834491  .00000000  00000+0  00000-0 0  9991
2 78152  55.0000 228.0000 0000000   0.0000 138.0000 14.70334635    16
CTC1_L_00299021-01
1 78153U 25516KY  26070.40834491  .00000000  00000+0  00000-0 0  9990
2 78153  55.0000 240.0000 0000000   0.0000 240.0000 14.70334635    15
CTC1_L_00299021-02
1 78154U 25565OQ  26070.40834491  .00000000  00000+0  00000-0 0  9995
2 78154  55.0000 240.0000 0000000   0.0000 330.0000 14.70334635    16
CTC1_L_00299021-03
1 78155U 26058XG  26070.40834491  .00000000  00000+0  00000-0 0  9994
2 78155  55.0000 240.0000 0000000   0.0000  60.0000 14.70334635    17
CTC1_L_00299021-04
1 78156U 22107IN  26070.40834491  .00000000  00000+0  00000-0 0  9996
2 78156  55.0000 240.0000 0000000   0.0000 150.0000 14.70334635    18
CTC1_L_00299022-01
1 78157U 23122CQ  26070.40834491  .00000000  00000+0  00000-0 0  9995
2 78157  55.0000 252.0000 0000000   0.0000 252.0000 14.70334635    15
CTC1_L_00299022-02
1 78158U 22288SR  26070.40834491  .00000000  00000+0  00000-0 0  9998
2 78158  55.0000 252.0000 0000000   0.0000 342.0000 14.70334635    16
CTC1_L_00299022-03
1 78159U 24722XY  26070.40834491  .00000000  00000+0  00000-0 0  9994
2 78159  55.0000 252.0000 0000000   0.0000  72.0000 14.70334635    17
CTC1_L_00299022-04
1 78160U 23354QJ  26070.40834491  .00000000  00000+0  00000-0 0  9996
2 78160  55.0000 252.0000 0000000   0.0000 162.0000 14.70334635    19
CTC1_L_00299023-01
1 78161U 26724CB  26070.40834491  .00000000  00000+0  00000-0 0  9991
2 78161  55.0000 264.0000 0000000   0.0000 264.0000 14.70334635    16
CTC1_L_00299023-02
1 78162U 26612DY  26070.40834491  .00000000  00000+0  00000-0 0  9998
2 78162  55.0000 264.0000 0000000   0.0000 354.0000 14.70334635    17
CTC1_L_00299023-03
1 78163U 22031TD  26070.40834491  .00000000  00000+0  00000-0 0  9990
2 78163  55.0000 264.0000 0000000   0.0000  84.0000 14.70334635    18
CTC1_L_00299023-04
1 78164U 24649LL  26070.40834491  .00000000  00000+0  00000-0 0  9998
2 78164  55.0000 264.0000 0000000   0.0000 174.0000 14.70334635    19
CTC1_L_00299024-01
1 78165U 22861X   26070.40834491  .00000000  00000+0  00000-0 0  9993
2 78165  55.0000 276.0000 0000000   0.0000 276.0000 14.70334635    16
CTC1_L_00299024-02
1 78166U 22683MH  26070.40834491  .00000000  00000+0  00000-0 0  9996
2 78166  55.0000 276.0000 0000000   0.0000   6.0000 14.70334635    18
CTC1_L_00299024-03
1 78167U 24361UR  26070.40834491  .00000000  00000+0  00000-0 0  9992
2 78167  55.0000 276.0000 0000000   0.0000  96.0000 14.70334635    18
CTC1_L_00299024-04
1 78168U 22430MV  26070.40834491  .00000000  00000+0  00000-0 0  9998
2 78168  55.0000 276.0000 0000000   0.0000 186.0000 14.70334635    19
CTC1_L_00299025-01
1 78169U 26453TP  26070.40834491  .00000000  00000+0  00000-0 0  9998
2 78169  55.0000 288.0000 0000000   0.0000 288.0000 14.70334635    16
CTC1_L_00299025-02
1 78170U 23938WY  26070.40834491  .00000000  00000+0  00000-0 0  9995
2 78170  55.0000 288.0000 0000000   0.0000  18.0000 14.70334635    19
CTC1_L_00299025-03
1 78171U 25918VG  26070.40834491  .00000000  00000+0  00000-0 0  9996
2 78171  55.0000 288.0000 0000000   0.0000 108.0000 14.70334635    10
CTC1_L_00299025-04
1 78172U 24600BB  26070.40834491  .00000000  00000+0  00000-0 0  9994
2 78172  55.0000 288.0000 0000000   0.0000 198.0000 14.70334635    10
CTC1_L_00299026-01
1 78173U 23700TO  26070.40834491  .00000000  00000+0  00000-0 0  9995
2 78173  55.0000 300.0000 0000000   0.0000 300.0000 14.70334635    11
CTC1_L_00299026-02
1 78174U 26660VF  26070.40834491  .00000000  00000+0  00000-0 0  9994
2 78174  55.0000 300.0000 0000000   0.0000  30.0000 14.70334635    12
CTC1_L_00299026-03
1 78175U 22550TO  26070.40834491  .00000000  00000+0  00000-0 0  9999
2 78175  55.0000 300.0000 0000000   0.0000 120.0000 14.70334635    13
CTC1_L_00299026-04
1 78176U 23140LC  26070.40834491  .00000000  00000+0  00000-0 0  9996
2 78176  55.0000 300.0000 0000000   0.0000 210.0000 14.70334635    14
CTC1_L_00299027-01
1 78177U 25610MV  26070.40834491  .00000000  00000+0  00000-0 0  9991
2 78177  55.0000 312.0000 0000000   0.0000 312.0000 14.70334635    11
CTC1_L_00299027-02
1 78178U 22186RQ  26070.40834491  .00000000  00000+0  00000-0 0  9997
2 78178  55.0000 312.0000 0000000   0.0000  42.0000 14.70334635    12
CTC1_L_00299027-03
1 78179U 26520SD  26070.40834491  .00000000  00000+0  00000-0 0  9994
2 78179  55.0000 312.0000 0000000   0.0000 132.0000 14.70334635    13
CTC1_L_00299027-04
1 78180U 23273VO  26070.40834491  .00000000  00000+0  00000-0 0  9998
2 78180  55.0000 312.0000 0000000   0.0000 222.0000 14.70334635    15
CTC1_L_00299028-01
1 78181U 22089VP  26070.40834491  .00000000  00000+0  00000-0 0  9993
2 78181  55.0000 324.0000 0000000   0.0000 324.0000 14.70334635    12
CTC1_L_00299028-02
1 78182U 23378YV  26070.40834491  .00000000  00000+0  00000-0 0  9996
2 78182  55.0000 324.0000 0000000   0.0000  54.0000 14.70334635    13
CTC1_L_00299028-03
1 78183U 25881LP  26070.40834491  .00000000  00000+0  00000-0 0  9998
2 78183  55.0000 324.0000 0000000   0.0000 144.0000 14.70334635    14
CTC1_L_00299028-04
1 78184U 24869XY  26070.40834491  .00000000  00000+0  00000-0 0  9994
2 78184  55.0000 324.0000 0000000   0.0000 234.0000 14.70334635    15
CTC1_L_00299029-01
1 78185U 24436BN  26070.40834491  .00000000  00000+0  00000-0 0  9995
2 78185  55.0000 336.0000 0000000   0.0000 336.0000 14.70334635    12
CTC1_L_00299029-02
1 78186U 25481ME  26070.40834491  .00000000  00000+0  00000-0 0  9997
2 78186  55.0000 336.0000 0000000   0.0000  66.0000 14.70334635    13
CTC1_L_00299029-03
1 78187U 22325QG  26070.40834491  .00000000  00000+0  00000-0 0  9992
2 78187  55.0000 336.0000 0000000   0.0000 156.0000 14.70334635    14
CTC1_L_00299029-04
1 78188U 25379UA  26070.40834491  .00000000  00000+0  00000-0 0  9995
2 78188  55.0000 336.0000 0000000   0.0000 246.0000 14.70334635    15
CTC1_L_00299030-01
1 78189U 24844AR  26070.40834491  .00000000  00000+0  00000-0 0  9992
2 78189  55.0000 348.0000 0000000   0.0000 348.0000 14.70334635    12
CTC1_L_00299030-02
1 78190U 22357OW  26070.40834491  .00000000  00000+0  00000-0 0  9991
2 78190  55.0000 348.0000 0000000   0.0000  78.0000 14.70334635    14
CTC1_L_00299030-03
1 78191U 25575YF  26070.40834491  .00000000  00000+0  00000-0 0  9997
2 78191  55.0000 348.0000 0000000   0.0000 168.0000 14.70334635    15
CTC1_L_00299030-04
1 78192U 26552YO  26070.40834491  .00000000  00000+0  00000-0 0  9994
2 78192  55.0000 348.0000 0000000   0.0000 258.0000 14.70334635    16
